[{"OBJECT_NAME":"BEIDOU-3 G4 (C62)","OBJECT_ID":"2023-066A","EPOCH":"2026-03-07T14:50:09.449088","MEAN_MOTION":1.00272485,"ECCENTRICITY":0.00023402,"INCLINATION":0.6429,"RA_OF_ASC_NODE":311.3646,"ARG_OF_PERICENTER":155.5272,"MEAN_ANOMALY":81.0116,"EPHEMERIS_TYPE":0,"CLASSIFICATION_TYPE":"U","NORAD_CAT_ID":56564,"ELEMENT_SET_NO":999,"REV_AT_EPOCH":1037,"BSTAR":0,"MEAN_MOTION_DOT":-1.12e-6,"MEAN_MOTION_DDOT":0},{"OBJECT_NAME":"NVS-01 (IRNSS-1J)","OBJECT_ID":"2023-076A","EPOCH":"2026-03-07T08:43:38.819136","MEAN_MOTION":1.002728,"ECCENTRICITY":0.00071621,"INCLINATION":2.4116,"RA_OF_ASC_NODE":248.5178,"ARG_OF_PERICENTER":46.2259,"MEAN_ANOMALY":130.7664,"EPHEMERIS_TYPE":0,"CLASSIFICATION_TYPE":"U","NORAD_CAT_ID":56759,"ELEMENT_SET_NO":999,"REV_AT_EPOCH":1009,"BSTAR":0,"MEAN_MOTION_DOT":-3.39e-6,"MEAN_MOTION_DDOT":0},{"OBJECT_NAME":"COSMOS 2569 (703K)","OBJECT_ID":"2023-114A","EPOCH":"2026-03-04T14:37:03.256608","MEAN_MOTION":2.13103963,"ECCENTRICITY":0.00128986,"INCLINATION":65.242,"RA_OF_ASC_NODE":76.146,"ARG_OF_PERICENTER":291.625,"MEAN_ANOMALY":68.2783,"EPHEMERIS_TYPE":0,"CLASSIFICATION_TYPE":"U","NORAD_CAT_ID":57517,"ELEMENT_SET_NO":999,"REV_AT_EPOCH":2003,"BSTAR":0,"MEAN_MOTION_DOT":1.1e-7,"MEAN_MOTION_DDOT":0},{"OBJECT_NAME":"BEIDOU-3 M28 (C50)","OBJECT_ID":"2023-207A","EPOCH":"2026-03-06T04:52:49.207584","MEAN_MOTION":1.86229805,"ECCENTRICITY":0.00049308,"INCLINATION":55.662,"RA_OF_ASC_NODE":65.7757,"ARG_OF_PERICENTER":303.3418,"MEAN_ANOMALY":56.6273,"EPHEMERIS_TYPE":0,"CLASSIFICATION_TYPE":"U","NORAD_CAT_ID":58654,"ELEMENT_SET_NO":999,"REV_AT_EPOCH":1492,"BSTAR":0,"MEAN_MOTION_DOT":-3.8e-7,"MEAN_MOTION_DDOT":0},{"OBJECT_NAME":"BEIDOU-3 M26 (C48)","OBJECT_ID":"2023-207B","EPOCH":"2026-03-06T12:54:24.375168","MEAN_MOTION":1.86229716,"ECCENTRICITY":0.00057314,"INCLINATION":55.6644,"RA_OF_ASC_NODE":65.7507,"ARG_OF_PERICENTER":288.8087,"MEAN_ANOMALY":71.1446,"EPHEMERIS_TYPE":0,"CLASSIFICATION_TYPE":"U","NORAD_CAT_ID":58655,"ELEMENT_SET_NO":999,"REV_AT_EPOCH":1491,"BSTAR":0,"MEAN_MOTION_DOT":-3.9e-7,"MEAN_MOTION_DDOT":0},{"OBJECT_NAME":"GSAT0225 (GALILEO 29)","OBJECT_ID":"2024-079A","EPOCH":"2026-03-05T13:55:38.500608","MEAN_MOTION":1.70474989,"ECCENTRICITY":0.0002603,"INCLINATION":55.0507,"RA_OF_ASC_NODE":103.9743,"ARG_OF_PERICENTER":257.7426,"MEAN_ANOMALY":101.8321,"EPHEMERIS_TYPE":0,"CLASSIFICATION_TYPE":"U","NORAD_CAT_ID":59598,"ELEMENT_SET_NO":999,"REV_AT_EPOCH":1154,"BSTAR":0,"MEAN_MOTION_DOT":7.0e-8,"MEAN_MOTION_DDOT":0},{"OBJECT_NAME":"GSAT0227 (GALILEO 30)","OBJECT_ID":"2024-079C","EPOCH":"2026-03-03T10:02:13.643808","MEAN_MOTION":1.70474834,"ECCENTRICITY":3.59e-5,"INCLINATION":55.044,"RA_OF_ASC_NODE":104.0338,"ARG_OF_PERICENTER":68.5105,"MEAN_ANOMALY":291.5792,"EPHEMERIS_TYPE":0,"CLASSIFICATION_TYPE":"U","NORAD_CAT_ID":59600,"ELEMENT_SET_NO":999,"REV_AT_EPOCH":1156,"BSTAR":0,"MEAN_MOTION_DOT":1.2e-7,"MEAN_MOTION_DDOT":0},{"OBJECT_NAME":"GSAT0232 (GALILEO 32)","OBJECT_ID":"2024-167A","EPOCH":"2026-02-17T15:52:34.088160","MEAN_MOTION":1.70443939,"ECCENTRICITY":0.00036004,"INCLINATION":55.2225,"RA_OF_ASC_NODE":224.5881,"ARG_OF_PERICENTER":296.6314,"MEAN_ANOMALY":116.1306,"EPHEMERIS_TYPE":0,"CLASSIFICATION_TYPE":"U","NORAD_CAT_ID":61182,"ELEMENT_SET_NO":999,"REV_AT_EPOCH":826,"BSTAR":0,"MEAN_MOTION_DOT":6.9e-7,"MEAN_MOTION_DDOT":0},{"OBJECT_NAME":"GSAT0226 (GALILEO 31)","OBJECT_ID":"2024-167B","EPOCH":"2026-03-04T02:12:55.359360","MEAN_MOTION":1.70474186,"ECCENTRICITY":0.00015885,"INCLINATION":55.2176,"RA_OF_ASC_NODE":224.2005,"ARG_OF_PERICENTER":128.6581,"MEAN_ANOMALY":232.0353,"EPHEMERIS_TYPE":0,"CLASSIFICATION_TYPE":"U","NORAD_CAT_ID":61183,"ELEMENT_SET_NO":999,"REV_AT_EPOCH":906,"BSTAR":0,"MEAN_MOTION_DOT":1.1e-7,"MEAN_MOTION_DDOT":0},{"OBJECT_NAME":"BEIDOU-3 M25 (C47)","OBJECT_ID":"2024-168B","EPOCH":"2026-03-07T04:04:38.698176","MEAN_MOTION":1.86230307,"ECCENTRICITY":0.00042589,"INCLINATION":54.5633,"RA_OF_ASC_NODE":305.7886,"ARG_OF_PERICENTER":319.2946,"MEAN_ANOMALY":221.4621,"EPHEMERIS_TYPE":0,"CLASSIFICATION_TYPE":"U","NORAD_CAT_ID":61186,"ELEMENT_SET_NO":999,"REV_AT_EPOCH":988,"BSTAR":0,"MEAN_MOTION_DOT":-6.9e-7,"MEAN_MOTION_DDOT":0},{"OBJECT_NAME":"BEIDOU-3 M27 (C49)","OBJECT_ID":"2024-168C","EPOCH":"2026-03-05T07:36:19.714176","MEAN_MOTION":1.86230358,"ECCENTRICITY":0.000298,"INCLINATION":54.5604,"RA_OF_ASC_NODE":305.8361,"ARG_OF_PERICENTER":20.4343,"MEAN_ANOMALY":132.974,"EPHEMERIS_TYPE":0,"CLASSIFICATION_TYPE":"U","NORAD_CAT_ID":61187,"ELEMENT_SET_NO":999,"REV_AT_EPOCH":732,"BSTAR":0,"MEAN_MOTION_DOT":-6.7e-7,"MEAN_MOTION_DDOT":0},{"OBJECT_NAME":"GPS BIII-7  (PRN 01)","OBJECT_ID":"2024-242A","EPOCH":"2026-03-06T15:28:29.759232","MEAN_MOTION":2.00569825,"ECCENTRICITY":0.00158374,"INCLINATION":54.891,"RA_OF_ASC_NODE":338.3407,"ARG_OF_PERICENTER":356.934,"MEAN_ANOMALY":8.8099,"EPHEMERIS_TYPE":0,"CLASSIFICATION_TYPE":"U","NORAD_CAT_ID":62339,"ELEMENT_SET_NO":999,"REV_AT_EPOCH":920,"BSTAR":0,"MEAN_MOTION_DOT":-1.04e-6,"MEAN_MOTION_DDOT":0},{"OBJECT_NAME":"NVS-02 (IRNSS-1K)","OBJECT_ID":"2025-020A","EPOCH":"2026-03-07T01:52:07.612032","MEAN_MOTION":2.17723396,"ECCENTRICITY":0.73500072,"INCLINATION":20.8378,"RA_OF_ASC_NODE":296.7346,"ARG_OF_PERICENTER":81.5207,"MEAN_ANOMALY":348.1073,"EPHEMERIS_TYPE":0,"CLASSIFICATION_TYPE":"U","NORAD_CAT_ID":62850,"ELEMENT_SET_NO":999,"REV_AT_EPOCH":875,"BSTAR":0.0006679321,"MEAN_MOTION_DOT":7.88e-6,"MEAN_MOTION_DDOT":0},{"OBJECT_NAME":"QZS-6 (QZSS/PRN 200)","OBJECT_ID":"2025-023A","EPOCH":"2026-03-07T14:32:57.707808","MEAN_MOTION":1.00269508,"ECCENTRICITY":0.00018132,"INCLINATION":0.02,"RA_OF_ASC_NODE":262.9949,"ARG_OF_PERICENTER":83.9353,"MEAN_ANOMALY":127.092,"EPHEMERIS_TYPE":0,"CLASSIFICATION_TYPE":"U","NORAD_CAT_ID":62876,"ELEMENT_SET_NO":999,"REV_AT_EPOCH":394,"BSTAR":0,"MEAN_MOTION_DOT":-2.34e-6,"MEAN_MOTION_DDOT":0},{"OBJECT_NAME":"COSMOS 2584 (704K)","OBJECT_ID":"2025-042A","EPOCH":"2026-02-28T17:48:18.452736","MEAN_MOTION":2.13103267,"ECCENTRICITY":0.00078227,"INCLINATION":65.0213,"RA_OF_ASC_NODE":76.4877,"ARG_OF_PERICENTER":236.244,"MEAN_ANOMALY":123.7373,"EPHEMERIS_TYPE":0,"CLASSIFICATION_TYPE":"U","NORAD_CAT_ID":63130,"ELEMENT_SET_NO":999,"REV_AT_EPOCH":773,"BSTAR":0,"MEAN_MOTION_DOT":3.9e-7,"MEAN_MOTION_DDOT":0},{"OBJECT_NAME":"GPS BIII-8  (PRN 21)","OBJECT_ID":"2025-116A","EPOCH":"2026-03-03T09:25:01.763328","MEAN_MOTION":2.00553198,"ECCENTRICITY":0.0008474,"INCLINATION":55.1633,"RA_OF_ASC_NODE":35.3874,"ARG_OF_PERICENTER":325.1064,"MEAN_ANOMALY":37.8908,"EPHEMERIS_TYPE":0,"CLASSIFICATION_TYPE":"U","NORAD_CAT_ID":64202,"ELEMENT_SET_NO":999,"REV_AT_EPOCH":575,"BSTAR":0,"MEAN_MOTION_DOT":-7.7e-7,"MEAN_MOTION_DDOT":0},{"OBJECT_NAME":"COSMOS 2596 (708K)","OBJECT_ID":"2025-206B","EPOCH":"2026-03-06T10:53:53.482272","MEAN_MOTION":2.13100383,"ECCENTRICITY":0.00128607,"INCLINATION":64.6931,"RA_OF_ASC_NODE":318.564,"ARG_OF_PERICENTER":315.8873,"MEAN_ANOMALY":223.8531,"EPHEMERIS_TYPE":0,"CLASSIFICATION_TYPE":"U","NORAD_CAT_ID":65590,"ELEMENT_SET_NO":999,"REV_AT_EPOCH":372,"BSTAR":0,"MEAN_MOTION_DOT":-6.2e-7,"MEAN_MOTION_DDOT":0}]
